{
"type": "FeatureCollection",
"name": "stations",
"crs": { "type": "name", "properties": { "name": "urn:ogc:def:crs:OGC:1.3:CRS84" } },
"features": [
{ "type": "Feature", "properties": { "alt_name": "Stasiun ASEAN", "name": "ASEAN Headquarters", "network": "MRT Jakarta", "operator": "MRT Jakarta", "public_transport": "station", "railway": "station", "station": "subway", "subway": "yes", "wikidata": "Q61365133", "wikipedia": "id:Stasiun MRT ASEAN", "osm_type": "node", "osm_id": 4695686975, "addr:city": null, "addr:postcode": null, "addr:street": null, "light_rail": null, "source": null, "train": null, "addr:country": null, "network:short": null, "network:wikidata": null, "operator:wikidata": null, "internet_access": null, "amenity": null, "note": null, "description": null, "wikipedia:en": null, "website": null, "wheelchair": null, "old_name": null, "railway:ref": null, "name:en": null, "access:roof": null, "addr:full": null, "building": null, "building:levels": null, "building:roof": null, "building:structure": null, "building:walls": null, "service": "MRT Jakarta" }, "geometry": { "type": "Point", "coordinates": [ 106.7984457, -6.2387737 ] } },
{ "type": "Feature", "properties": { "alt_name": null, "name": "Taman Mini", "network": "LRT Jabodebek", "operator": "PT Kereta Api Indonesia (Persero), Divisi LRT Jabodebek", "public_transport": "station", "railway": "station", "station": "light_rail", "subway": null, "wikidata": "Q19726721", "wikipedia": "id:Stasiun LRT TMII", "osm_type": "node", "osm_id": 4907843137, "addr:city": "Jakarta", "addr:postcode": "13650", "addr:street": "Jalan Taman Mini I", "light_rail": "yes", "source": "HOT_InAWARESurvey_2017", "train": null, "addr:country": null, "network:short": null, "network:wikidata": null, "operator:wikidata": null, "internet_access": null, "amenity": null, "note": null, "description": null, "wikipedia:en": null, "website": null, "wheelchair": null, "old_name": null, "railway:ref": null, "name:en": null, "access:roof": null, "addr:full": null, "building": null, "building:levels": null, "building:roof": null, "building:structure": null, "building:walls": null, "service": "LRT Jabodebek" }, "geometry": { "type": "Point", "coordinates": [ 106.8805584, -6.2929088 ] } },
{ "type": "Feature", "properties": { "alt_name": "Stasiun Bundaran HI", "name": "Bundaran HI Bank Jakarta", "network": "MRT Jakarta", "operator": "MRT Jakarta", "public_transport": "station", "railway": "station", "station": "subway", "subway": "yes", "wikidata": "Q52906919", "wikipedia": "id:Stasiun MRT Bundaran Hotel Indonesia", "osm_type": "node", "osm_id": 6196107719, "addr:city": "Central Jakarta", "addr:postcode": null, "addr:street": "Jalan M.H. Thamrin", "light_rail": null, "source": null, "train": null, "addr:country": null, "network:short": "MRTJ", "network:wikidata": "Q3333785", "operator:wikidata": "Q3333785", "internet_access": null, "amenity": null, "note": null, "description": null, "wikipedia:en": null, "website": null, "wheelchair": null, "old_name": null, "railway:ref": null, "name:en": null, "access:roof": null, "addr:full": null, "building": null, "building:levels": null, "building:roof": null, "building:structure": null, "building:walls": null, "service": "MRT Jakarta" }, "geometry": { "type": "Point", "coordinates": [ 106.8230084, -6.1918644 ] } },
{ "type": "Feature", "properties": { "alt_name": "Stasiun Dukuh Atas", "name": "Dukuh Atas BNI", "network": "MRT Jakarta", "operator": "MRT Jakarta", "public_transport": "station", "railway": "station", "station": "subway", "subway": "yes", "wikidata": "Q61365190", "wikipedia": "id:Stasiun MRT Dukuh Atas", "osm_type": "node", "osm_id": 6196107720, "addr:city": null, "addr:postcode": null, "addr:street": null, "light_rail": null, "source": null, "train": null, "addr:country": null, "network:short": "MRTJ", "network:wikidata": "Q3333785", "operator:wikidata": "Q3333785", "internet_access": null, "amenity": null, "note": null, "description": null, "wikipedia:en": null, "website": null, "wheelchair": null, "old_name": null, "railway:ref": null, "name:en": null, "access:roof": null, "addr:full": null, "building": null, "building:levels": null, "building:roof": null, "building:structure": null, "building:walls": null, "service": "MRT Jakarta" }, "geometry": { "type": "Point", "coordinates": [ 106.822788, -6.2007957 ] } },
{ "type": "Feature", "properties": { "alt_name": "Stasiun Setiabudi", "name": "Setiabudi Astra", "network": "MRT Jakarta", "operator": "MRT Jakarta", "public_transport": "station", "railway": "station", "station": "subway", "subway": "yes", "wikidata": "Q61365174", "wikipedia": "id:Stasiun MRT Setiabudi", "osm_type": "node", "osm_id": 6196107721, "addr:city": "South Jakarta", "addr:postcode": null, "addr:street": "Jalan Jend. Sudirman", "light_rail": null, "source": null, "train": null, "addr:country": null, "network:short": "MRTJ", "network:wikidata": "Q3333785", "operator:wikidata": "Q3333785", "internet_access": "yes", "amenity": null, "note": null, "description": null, "wikipedia:en": null, "website": null, "wheelchair": null, "old_name": null, "railway:ref": null, "name:en": null, "access:roof": null, "addr:full": null, "building": null, "building:levels": null, "building:roof": null, "building:structure": null, "building:walls": null, "service": "MRT Jakarta" }, "geometry": { "type": "Point", "coordinates": [ 106.8216945, -6.2090648 ] } },
{ "type": "Feature", "properties": { "alt_name": "Stasiun Bendungan Hilir", "name": "Bendungan Hilir", "network": "MRT Jakarta", "operator": "MRT Jakarta", "public_transport": "station", "railway": "station", "station": "subway", "subway": "yes", "wikidata": "Q61365164", "wikipedia": "id:Stasiun MRT Bendungan Hilir", "osm_type": "node", "osm_id": 6196107722, "addr:city": null, "addr:postcode": null, "addr:street": null, "light_rail": null, "source": null, "train": null, "addr:country": null, "network:short": "MRTJ", "network:wikidata": "Q3333785", "operator:wikidata": "Q3333785", "internet_access": null, "amenity": "bus_station", "note": "tidak perlu menambahkan naming rights", "description": null, "wikipedia:en": null, "website": null, "wheelchair": null, "old_name": null, "railway:ref": null, "name:en": null, "access:roof": null, "addr:full": null, "building": null, "building:levels": null, "building:roof": null, "building:structure": null, "building:walls": null, "service": "MRT Jakarta" }, "geometry": { "type": "Point", "coordinates": [ 106.8179484, -6.2150263 ] } },
{ "type": "Feature", "properties": { "alt_name": "Stasiun Istora", "name": "Istora Mandiri", "network": "MRT Jakarta", "operator": "MRT Jakarta", "public_transport": "station", "railway": "station", "station": "subway", "subway": "yes", "wikidata": "Q61365156", "wikipedia": "id:Stasiun MRT Istora", "osm_type": "node", "osm_id": 6196107723, "addr:city": "South Jakarta", "addr:postcode": null, "addr:street": "Jalan Jend. Sudirman", "light_rail": null, "source": null, "train": null, "addr:country": null, "network:short": "MRTJ", "network:wikidata": "Q3333785", "operator:wikidata": "Q3333785", "internet_access": "yes", "amenity": null, "note": null, "description": "North-South Line", "wikipedia:en": null, "website": null, "wheelchair": null, "old_name": null, "railway:ref": null, "name:en": null, "access:roof": null, "addr:full": null, "building": null, "building:levels": null, "building:roof": null, "building:structure": null, "building:walls": null, "service": "MRT Jakarta" }, "geometry": { "type": "Point", "coordinates": [ 106.8086229, -6.22239 ] } },
{ "type": "Feature", "properties": { "alt_name": "Stasiun Senayan", "name": "Senayan Mastercard", "network": "MRT Jakarta", "operator": "MRT Jakarta", "public_transport": "station", "railway": "station", "station": "subway", "subway": "yes", "wikidata": "Q61365153", "wikipedia": "id:Stasiun MRT Senayan", "osm_type": "node", "osm_id": 6196107724, "addr:city": null, "addr:postcode": null, "addr:street": null, "light_rail": null, "source": null, "train": null, "addr:country": null, "network:short": "MRTJ", "network:wikidata": "Q3333785", "operator:wikidata": "Q3333785", "internet_access": null, "amenity": null, "note": null, "description": null, "wikipedia:en": "en:Senayan Mastercard MRT station", "website": null, "wheelchair": null, "old_name": null, "railway:ref": null, "name:en": null, "access:roof": null, "addr:full": null, "building": null, "building:levels": null, "building:roof": null, "building:structure": null, "building:walls": null, "service": "MRT Jakarta" }, "geometry": { "type": "Point", "coordinates": [ 106.8024926, -6.2267337 ] } },
{ "type": "Feature", "properties": { "alt_name": "Stasiun Blok M", "name": "Blok M BCA", "network": "MRT Jakarta", "operator": "MRT Jakarta", "public_transport": "station", "railway": "station", "station": "subway", "subway": "yes", "wikidata": "Q61365118", "wikipedia": "id:Stasiun MRT Blok M", "osm_type": "node", "osm_id": 6196107726, "addr:city": null, "addr:postcode": null, "addr:street": null, "light_rail": null, "source": null, "train": null, "addr:country": null, "network:short": "MRTJ", "network:wikidata": "Q3333785", "operator:wikidata": "Q3333785", "internet_access": null, "amenity": null, "note": null, "description": null, "wikipedia:en": null, "website": null, "wheelchair": null, "old_name": null, "railway:ref": null, "name:en": null, "access:roof": null, "addr:full": null, "building": null, "building:levels": null, "building:roof": null, "building:structure": null, "building:walls": null, "service": "MRT Jakarta" }, "geometry": { "type": "Point", "coordinates": [ 106.7981332, -6.2444643 ] } },
{ "type": "Feature", "properties": { "alt_name": "Stasiun Blok A", "name": "Blok A", "network": "MRT Jakarta", "operator": "MRT Jakarta", "public_transport": "station", "railway": "station", "station": "subway", "subway": "yes", "wikidata": "Q61365108", "wikipedia": "id:Stasiun MRT Blok A", "osm_type": "node", "osm_id": 6196107727, "addr:city": null, "addr:postcode": null, "addr:street": null, "light_rail": null, "source": null, "train": null, "addr:country": null, "network:short": "MRTJ", "network:wikidata": "Q3333785", "operator:wikidata": "Q3333785", "internet_access": null, "amenity": null, "note": "tidak perlu menambahkan naming rights", "description": null, "wikipedia:en": null, "website": null, "wheelchair": null, "old_name": null, "railway:ref": null, "name:en": null, "access:roof": null, "addr:full": null, "building": null, "building:levels": null, "building:roof": null, "building:structure": null, "building:walls": null, "service": "MRT Jakarta" }, "geometry": { "type": "Point", "coordinates": [ 106.7971403, -6.2557793 ] } },
{ "type": "Feature", "properties": { "alt_name": "Stasiun Haji Nawi", "name": "Haji Nawi", "network": "MRT Jakarta", "operator": "MRT Jakarta", "public_transport": "station", "railway": "station", "station": "subway", "subway": "yes", "wikidata": "Q61365102", "wikipedia": "id:Stasiun MRT Haji Nawi", "osm_type": "node", "osm_id": 6196107728, "addr:city": null, "addr:postcode": null, "addr:street": null, "light_rail": null, "source": null, "train": null, "addr:country": null, "network:short": "MRTJ", "network:wikidata": "Q3333785", "operator:wikidata": "Q3333785", "internet_access": null, "amenity": null, "note": "tidak perlu menambahkan naming rights", "description": null, "wikipedia:en": null, "website": null, "wheelchair": null, "old_name": null, "railway:ref": null, "name:en": null, "access:roof": null, "addr:full": null, "building": null, "building:levels": null, "building:roof": null, "building:structure": null, "building:walls": null, "service": "MRT Jakarta" }, "geometry": { "type": "Point", "coordinates": [ 106.7973262, -6.2666947 ] } },
{ "type": "Feature", "properties": { "alt_name": "Stasiun Cipete Raya", "name": "Cipete Raya TUKU", "network": "MRT Jakarta", "operator": "MRT Jakarta", "public_transport": "station", "railway": "station", "station": "subway", "subway": "yes", "wikidata": "Q61365099", "wikipedia": "id:Stasiun MRT Cipete Raya", "osm_type": "node", "osm_id": 6196107729, "addr:city": null, "addr:postcode": null, "addr:street": null, "light_rail": null, "source": null, "train": null, "addr:country": null, "network:short": "MRTJ", "network:wikidata": "Q3333785", "operator:wikidata": "Q3333785", "internet_access": null, "amenity": null, "note": null, "description": null, "wikipedia:en": null, "website": null, "wheelchair": null, "old_name": null, "railway:ref": null, "name:en": null, "access:roof": null, "addr:full": null, "building": null, "building:levels": null, "building:roof": null, "building:structure": null, "building:walls": null, "service": "MRT Jakarta" }, "geometry": { "type": "Point", "coordinates": [ 106.7973159, -6.2783596 ] } },
{ "type": "Feature", "properties": { "alt_name": "Stasiun Fatmawati", "name": "Fatmawati Indomaret", "network": "MRT Jakarta", "operator": "MRT Jakarta", "public_transport": "station", "railway": "station", "station": "subway", "subway": "yes", "wikidata": "Q61365063", "wikipedia": "id:Stasiun MRT Fatmawati", "osm_type": "node", "osm_id": 6577753462, "addr:city": null, "addr:postcode": null, "addr:street": null, "light_rail": null, "source": null, "train": null, "addr:country": null, "network:short": "MRTJ", "network:wikidata": "Q3333785", "operator:wikidata": "Q3333785", "internet_access": "yes", "amenity": null, "note": null, "description": null, "wikipedia:en": null, "website": "https://jakartamrt.co.id/", "wheelchair": null, "old_name": null, "railway:ref": null, "name:en": null, "access:roof": null, "addr:full": null, "building": null, "building:levels": null, "building:roof": null, "building:structure": null, "building:walls": null, "service": "MRT Jakarta" }, "geometry": { "type": "Point", "coordinates": [ 106.7924644, -6.2924511 ] } },
{ "type": "Feature", "properties": { "alt_name": "Stasiun Lebak Bulus", "name": "Lebak Bulus Bank Syariah Indonesia", "network": "MRT Jakarta", "operator": "MRT Jakarta", "public_transport": "station", "railway": "station", "station": "subway", "subway": "yes", "wikidata": "Q61365057", "wikipedia": "id:Stasiun MRT Lebak Bulus", "osm_type": "node", "osm_id": 6577753463, "addr:city": null, "addr:postcode": null, "addr:street": null, "light_rail": null, "source": null, "train": null, "addr:country": null, "network:short": "MRTJ", "network:wikidata": "Q3333785", "operator:wikidata": "Q3333785", "internet_access": null, "amenity": null, "note": null, "description": null, "wikipedia:en": null, "website": null, "wheelchair": "yes", "old_name": null, "railway:ref": null, "name:en": null, "access:roof": null, "addr:full": null, "building": null, "building:levels": null, "building:roof": null, "building:structure": null, "building:walls": null, "service": "MRT Jakarta" }, "geometry": { "type": "Point", "coordinates": [ 106.7749355, -6.2892744 ] } },
{ "type": "Feature", "properties": { "alt_name": null, "name": "Cikoko", "network": "LRT Jabodebek", "operator": "PT Kereta Api Indonesia (Persero), Divisi LRT Jabodebek", "public_transport": "station", "railway": "station", "station": "light_rail", "subway": null, "wikidata": "Q10166205", "wikipedia": "id:Stasiun LRT Cikoko", "osm_type": "node", "osm_id": 6720467131, "addr:city": "Jakarta", "addr:postcode": null, "addr:street": null, "light_rail": "yes", "source": null, "train": null, "addr:country": null, "network:short": null, "network:wikidata": "Q20427104", "operator:wikidata": null, "internet_access": null, "amenity": null, "note": null, "description": null, "wikipedia:en": null, "website": null, "wheelchair": null, "old_name": null, "railway:ref": null, "name:en": null, "access:roof": null, "addr:full": null, "building": null, "building:levels": null, "building:roof": null, "building:structure": null, "building:walls": null, "service": "LRT Jabodebek" }, "geometry": { "type": "Point", "coordinates": [ 106.8570718, -6.2434846 ] } },
{ "type": "Feature", "properties": { "alt_name": null, "name": "Pancoran", "network": "LRT Jabodebek", "operator": "PT Kereta Api Indonesia (Persero), Divisi LRT Jabodebek", "public_transport": "station", "railway": "station", "station": "light_rail", "subway": null, "wikidata": "Q10166185", "wikipedia": "id:Stasiun LRT Pancoran", "osm_type": "node", "osm_id": 6720467132, "addr:city": "Jakarta", "addr:postcode": null, "addr:street": null, "light_rail": "yes", "source": null, "train": null, "addr:country": null, "network:short": null, "network:wikidata": "Q20427104", "operator:wikidata": null, "internet_access": null, "amenity": null, "note": null, "description": null, "wikipedia:en": null, "website": null, "wheelchair": null, "old_name": null, "railway:ref": null, "name:en": null, "access:roof": null, "addr:full": null, "building": null, "building:levels": null, "building:roof": null, "building:structure": null, "building:walls": null, "service": "LRT Jabodebek" }, "geometry": { "type": "Point", "coordinates": [ 106.8385146, -6.2421415 ] } },
{ "type": "Feature", "properties": { "alt_name": null, "name": "Setiabudi", "network": "LRT Jabodebek", "operator": "PT Kereta Api Indonesia (Persero), Divisi LRT Jabodebek", "public_transport": "station", "railway": "station", "station": "light_rail", "subway": null, "wikidata": "Q21177475", "wikipedia": "id:Stasiun LRT Setiabudi", "osm_type": "node", "osm_id": 6720467135, "addr:city": "Jakarta", "addr:postcode": null, "addr:street": null, "light_rail": "yes", "source": null, "train": null, "addr:country": null, "network:short": null, "network:wikidata": "Q20427104", "operator:wikidata": null, "internet_access": null, "amenity": null, "note": null, "description": null, "wikipedia:en": null, "website": null, "wheelchair": null, "old_name": null, "railway:ref": null, "name:en": null, "access:roof": null, "addr:full": null, "building": null, "building:levels": null, "building:roof": null, "building:structure": null, "building:walls": null, "service": "LRT Jabodebek" }, "geometry": { "type": "Point", "coordinates": [ 106.8302209, -6.2093184 ] } },
{ "type": "Feature", "properties": { "alt_name": null, "name": "Rasuna Said", "network": "LRT Jabodebek", "operator": "PT Kereta Api Indonesia (Persero), Divisi LRT Jabodebek", "public_transport": "station", "railway": "station", "station": "light_rail", "subway": null, "wikidata": "Q25580740", "wikipedia": "id:Stasiun LRT Rasuna Said", "osm_type": "node", "osm_id": 6720467136, "addr:city": "Jakarta", "addr:postcode": null, "addr:street": null, "light_rail": "yes", "source": null, "train": null, "addr:country": null, "network:short": null, "network:wikidata": "Q20427104", "operator:wikidata": null, "internet_access": null, "amenity": null, "note": null, "description": null, "wikipedia:en": null, "website": null, "wheelchair": null, "old_name": null, "railway:ref": null, "name:en": null, "access:roof": null, "addr:full": null, "building": null, "building:levels": null, "building:roof": null, "building:structure": null, "building:walls": null, "service": "LRT Jabodebek" }, "geometry": { "type": "Point", "coordinates": [ 106.8322373, -6.2216089 ] } },
{ "type": "Feature", "properties": { "alt_name": null, "name": "Kampung Rambutan", "network": "LRT Jabodebek", "operator": "PT Kereta Api Indonesia (Persero), Divisi LRT Jabodebek", "public_transport": "station", "railway": "station", "station": "light_rail", "subway": null, "wikidata": "Q19752040", "wikipedia": "id:Stasiun LRT Kampung Rambutan", "osm_type": "node", "osm_id": 6720467137, "addr:city": "Jakarta", "addr:postcode": null, "addr:street": null, "light_rail": "yes", "source": null, "train": null, "addr:country": null, "network:short": null, "network:wikidata": null, "operator:wikidata": null, "internet_access": null, "amenity": null, "note": null, "description": null, "wikipedia:en": null, "website": null, "wheelchair": null, "old_name": null, "railway:ref": null, "name:en": null, "access:roof": null, "addr:full": null, "building": null, "building:levels": null, "building:roof": null, "building:structure": null, "building:walls": null, "service": "LRT Jabodebek" }, "geometry": { "type": "Point", "coordinates": [ 106.8843804, -6.3095494 ] } },
{ "type": "Feature", "properties": { "alt_name": null, "name": "Harjamukti", "network": "LRT Jabodebek", "operator": "PT Kereta Api Indonesia (Persero), Divisi LRT Jabodebek", "public_transport": "station", "railway": "station", "station": "light_rail", "subway": null, "wikidata": "Q28163959", "wikipedia": "id:Stasiun LRT Harjamukti", "osm_type": "node", "osm_id": 6720467138, "addr:city": "Depok", "addr:postcode": null, "addr:street": null, "light_rail": "yes", "source": null, "train": null, "addr:country": null, "network:short": null, "network:wikidata": null, "operator:wikidata": null, "internet_access": null, "amenity": null, "note": null, "description": null, "wikipedia:en": null, "website": null, "wheelchair": null, "old_name": null, "railway:ref": null, "name:en": null, "access:roof": null, "addr:full": null, "building": null, "building:levels": null, "building:roof": null, "building:structure": null, "building:walls": null, "service": "LRT Jabodebek" }, "geometry": { "type": "Point", "coordinates": [ 106.8956698, -6.3738926 ] } },
{ "type": "Feature", "properties": { "alt_name": null, "name": "Jatimulya", "network": "LRT Jabodebek", "operator": "PT Kereta Api Indonesia (Persero), Divisi LRT Jabodebek", "public_transport": "station", "railway": "station", "station": "light_rail", "subway": null, "wikidata": "Q19741279", "wikipedia": "id:Stasiun LRT Jati Mulya", "osm_type": "node", "osm_id": 7616402144, "addr:city": "Jakarta", "addr:postcode": null, "addr:street": null, "light_rail": "yes", "source": null, "train": null, "addr:country": null, "network:short": null, "network:wikidata": null, "operator:wikidata": null, "internet_access": null, "amenity": null, "note": null, "description": null, "wikipedia:en": null, "website": null, "wheelchair": null, "old_name": null, "railway:ref": null, "name:en": null, "access:roof": null, "addr:full": null, "building": null, "building:levels": null, "building:roof": null, "building:structure": null, "building:walls": null, "service": "LRT Jabodebek" }, "geometry": { "type": "Point", "coordinates": [ 107.0216701, -6.2641077 ] } },
{ "type": "Feature", "properties": { "alt_name": null, "name": "Bekasi Barat", "network": "LRT Jabodebek", "operator": "PT Kereta Api Indonesia (Persero), Divisi LRT Jabodebek", "public_transport": "station", "railway": "station", "station": "light_rail", "subway": null, "wikidata": "Q33022844", "wikipedia": "id:Stasiun LRT Bekasi Barat", "osm_type": "node", "osm_id": 8174072563, "addr:city": "Jakarta", "addr:postcode": null, "addr:street": null, "light_rail": "yes", "source": null, "train": null, "addr:country": null, "network:short": null, "network:wikidata": null, "operator:wikidata": null, "internet_access": null, "amenity": null, "note": null, "description": null, "wikipedia:en": null, "website": null, "wheelchair": null, "old_name": null, "railway:ref": null, "name:en": null, "access:roof": null, "addr:full": null, "building": null, "building:levels": null, "building:roof": null, "building:structure": null, "building:walls": null, "service": "LRT Jabodebek" }, "geometry": { "type": "Point", "coordinates": [ 106.9904237, -6.2529489 ] } },
{ "type": "Feature", "properties": { "alt_name": null, "name": "Cikunir 2", "network": "LRT Jabodebek", "operator": "PT Kereta Api Indonesia (Persero), Divisi LRT Jabodebek", "public_transport": "station", "railway": "station", "station": "light_rail", "subway": null, "wikidata": "Q33022543", "wikipedia": "id:Stasiun LRT Cikunir 2", "osm_type": "node", "osm_id": 8174072564, "addr:city": "Jakarta", "addr:postcode": null, "addr:street": "Jalan Batu Mulia", "light_rail": "yes", "source": null, "train": null, "addr:country": null, "network:short": null, "network:wikidata": null, "operator:wikidata": null, "internet_access": null, "amenity": null, "note": null, "description": null, "wikipedia:en": null, "website": null, "wheelchair": null, "old_name": null, "railway:ref": null, "name:en": null, "access:roof": null, "addr:full": null, "building": null, "building:levels": null, "building:roof": null, "building:structure": null, "building:walls": null, "service": "LRT Jabodebek" }, "geometry": { "type": "Point", "coordinates": [ 106.9632112, -6.2546502 ] } },
{ "type": "Feature", "properties": { "alt_name": null, "name": "Cikunir 1", "network": "LRT Jabodebek", "operator": "PT Kereta Api Indonesia (Persero), Divisi LRT Jabodebek", "public_transport": "station", "railway": "station", "station": "light_rail", "subway": null, "wikidata": "Q33022012", "wikipedia": "id:Stasiun LRT Cikunir 1", "osm_type": "node", "osm_id": 8174072565, "addr:city": "Kota Bekasi", "addr:postcode": null, "addr:street": "Jalan Caman Raya", "light_rail": "yes", "source": null, "train": null, "addr:country": null, "network:short": null, "network:wikidata": null, "operator:wikidata": null, "internet_access": null, "amenity": null, "note": null, "description": null, "wikipedia:en": null, "website": null, "wheelchair": null, "old_name": null, "railway:ref": null, "name:en": null, "access:roof": null, "addr:full": null, "building": null, "building:levels": null, "building:roof": null, "building:structure": null, "building:walls": null, "service": "LRT Jabodebek" }, "geometry": { "type": "Point", "coordinates": [ 106.9518734, -6.2566001 ] } },
{ "type": "Feature", "properties": { "alt_name": null, "name": "Jatibening Baru", "network": "LRT Jabodebek", "operator": "PT Kereta Api Indonesia (Persero), Divisi LRT Jabodebek", "public_transport": "station", "railway": "station", "station": "light_rail", "subway": null, "wikidata": "Q33020703", "wikipedia": "id:Stasiun LRT Jati Bening Baru", "osm_type": "node", "osm_id": 8174072566, "addr:city": "Jakarta", "addr:postcode": null, "addr:street": null, "light_rail": "yes", "source": null, "train": null, "addr:country": null, "network:short": null, "network:wikidata": null, "operator:wikidata": null, "internet_access": null, "amenity": null, "note": null, "description": null, "wikipedia:en": null, "website": null, "wheelchair": null, "old_name": null, "railway:ref": null, "name:en": null, "access:roof": null, "addr:full": null, "building": null, "building:levels": null, "building:roof": null, "building:structure": null, "building:walls": null, "service": "LRT Jabodebek" }, "geometry": { "type": "Point", "coordinates": [ 106.9279199, -6.2577476 ] } },
{ "type": "Feature", "properties": { "alt_name": null, "name": "Kuningan", "network": "LRT Jabodebek", "operator": "PT Kereta Api Indonesia (Persero), Divisi LRT Jabodebek", "public_transport": "station", "railway": "station", "station": "light_rail", "subway": null, "wikidata": "Q10166373", "wikipedia": "id:Stasiun LRT Kuningan", "osm_type": "node", "osm_id": 8174072567, "addr:city": "Jakarta", "addr:postcode": null, "addr:street": null, "light_rail": "yes", "source": null, "train": null, "addr:country": null, "network:short": null, "network:wikidata": "Q20427104", "operator:wikidata": null, "internet_access": null, "amenity": null, "note": null, "description": null, "wikipedia:en": null, "website": null, "wheelchair": null, "old_name": null, "railway:ref": null, "name:en": null, "access:roof": null, "addr:full": null, "building": null, "building:levels": null, "building:roof": null, "building:structure": null, "building:walls": null, "service": "LRT Jabodebek" }, "geometry": { "type": "Point", "coordinates": [ 106.8332031, -6.2287727 ] } },
{ "type": "Feature", "properties": { "alt_name": null, "name": "Ciracas", "network": "LRT Jabodebek", "operator": "PT Kereta Api Indonesia (Persero), Divisi LRT Jabodebek", "public_transport": "station", "railway": "station", "station": "light_rail", "subway": null, "wikidata": "Q19726743", "wikipedia": "id:Stasiun LRT Ciracas", "osm_type": "node", "osm_id": 8174072568, "addr:city": "Jakarta", "addr:postcode": "13650", "addr:street": null, "light_rail": "yes", "source": "HOT_InAWARESurvey_2017", "train": null, "addr:country": null, "network:short": null, "network:wikidata": null, "operator:wikidata": null, "internet_access": null, "amenity": null, "note": null, "description": null, "wikipedia:en": null, "website": null, "wheelchair": null, "old_name": null, "railway:ref": null, "name:en": null, "access:roof": null, "addr:full": null, "building": null, "building:levels": null, "building:roof": null, "building:structure": null, "building:walls": null, "service": "LRT Jabodebek" }, "geometry": { "type": "Point", "coordinates": [ 106.8866433, -6.3237693 ] } },
{ "type": "Feature", "properties": { "alt_name": null, "name": "Dukuh Atas Bank Syariah Indonesia", "network": "LRT Jabodebek", "operator": "PT Kereta Api Indonesia (Persero), Divisi LRT Jabodebek", "public_transport": "station", "railway": "station", "station": "light_rail", "subway": null, "wikidata": "Q19740981", "wikipedia": "id:Stasiun LRT Dukuh Atas BNI", "osm_type": "node", "osm_id": 8174072570, "addr:city": "Jakarta", "addr:postcode": null, "addr:street": null, "light_rail": "yes", "source": null, "train": null, "addr:country": null, "network:short": null, "network:wikidata": "Q20427104", "operator:wikidata": null, "internet_access": null, "amenity": null, "note": null, "description": null, "wikipedia:en": null, "website": null, "wheelchair": null, "old_name": "Dukuh Atas", "railway:ref": null, "name:en": null, "access:roof": null, "addr:full": null, "building": null, "building:levels": null, "building:roof": null, "building:structure": null, "building:walls": null, "service": "LRT Jabodebek" }, "geometry": { "type": "Point", "coordinates": [ 106.8255301, -6.204828 ] } },
{ "type": "Feature", "properties": { "alt_name": null, "name": "Ciliwung", "network": "LRT Jabodebek", "operator": "PT Kereta Api Indonesia (Persero), Divisi LRT Jabodebek", "public_transport": "station", "railway": "station", "station": "light_rail", "subway": null, "wikidata": "Q10166356", "wikipedia": "id:Stasiun LRT Ciliwung", "osm_type": "node", "osm_id": 8487603262, "addr:city": "Jakarta", "addr:postcode": null, "addr:street": null, "light_rail": "yes", "source": null, "train": null, "addr:country": null, "network:short": null, "network:wikidata": "Q20427104", "operator:wikidata": null, "internet_access": null, "amenity": null, "note": null, "description": null, "wikipedia:en": null, "website": null, "wheelchair": null, "old_name": null, "railway:ref": null, "name:en": null, "access:roof": null, "addr:full": null, "building": null, "building:levels": null, "building:roof": null, "building:structure": null, "building:walls": null, "service": "LRT Jabodebek" }, "geometry": { "type": "Point", "coordinates": [ 106.8639705, -6.2434461 ] } },
{ "type": "Feature", "properties": { "alt_name": null, "name": "Halim", "network": "LRT Jabodebek", "operator": "PT Kereta Api Indonesia (Persero), Divisi LRT Jabodebek", "public_transport": "station", "railway": "station", "station": "light_rail", "subway": null, "wikidata": "Q111590566", "wikipedia": "id:Stasiun Halim", "osm_type": "node", "osm_id": 9761865798, "addr:city": "Jakarta", "addr:postcode": null, "addr:street": null, "light_rail": "yes", "source": null, "train": null, "addr:country": null, "network:short": null, "network:wikidata": null, "operator:wikidata": null, "internet_access": null, "amenity": null, "note": null, "description": null, "wikipedia:en": null, "website": null, "wheelchair": null, "old_name": null, "railway:ref": "HAL", "name:en": null, "access:roof": null, "addr:full": null, "building": null, "building:levels": null, "building:roof": null, "building:structure": null, "building:walls": null, "service": "LRT Jabodebek" }, "geometry": { "type": "Point", "coordinates": [ 106.8872875, -6.2458656 ] } },
{ "type": "Feature", "properties": { "alt_name": null, "name": "Cawang", "network": "LRT Jabodebek", "operator": "PT Kereta Api Indonesia (Persero), Divisi LRT Jabodebek", "public_transport": "station", "railway": "station", "station": "light_rail", "subway": null, "wikidata": "Q19726745", "wikipedia": "id:Stasiun LRT Cawang", "osm_type": "node", "osm_id": 12260707174, "addr:city": "Jakarta", "addr:postcode": null, "addr:street": null, "light_rail": "yes", "source": null, "train": null, "addr:country": null, "network:short": null, "network:wikidata": "Q20427104", "operator:wikidata": null, "internet_access": null, "amenity": null, "note": null, "description": null, "wikipedia:en": null, "website": null, "wheelchair": null, "old_name": null, "railway:ref": null, "name:en": null, "access:roof": null, "addr:full": null, "building": null, "building:levels": null, "building:roof": null, "building:structure": null, "building:walls": null, "service": "LRT Jabodebek" }, "geometry": { "type": "Point", "coordinates": [ 106.8712296, -6.245907 ] } },
{ "type": "Feature", "properties": { "alt_name": null, "name": "Kantor KIR Jakarta Selatan", "network": "MRT Jakarta", "operator": "MRT Jakarta", "public_transport": "station", "railway": "station", "station": "subway", "subway": "yes", "wikidata": null, "wikipedia": null, "osm_type": "way", "osm_id": 157360700, "addr:city": null, "addr:postcode": null, "addr:street": null, "light_rail": null, "source": null, "train": null, "addr:country": null, "network:short": "MRTJ", "network:wikidata": "Q3333785", "operator:wikidata": "Q3333785", "internet_access": null, "amenity": null, "note": null, "description": null, "wikipedia:en": null, "website": null, "wheelchair": null, "old_name": null, "railway:ref": null, "name:en": null, "access:roof": "yes", "addr:full": "Jalan Moh. Kahfi 2", "building": "government_office", "building:levels": "1", "building:roof": "tile", "building:structure": "reinforced_masonry", "building:walls": "brick", "service": "MRT Jakarta" }, "geometry": { "type": "Point", "coordinates": [ 106.808024923264782, -6.3563874 ] } }
]
}
